{
  "type": "FeatureCollection",
  "features": [
    {
      "geometry": {
        "coordinates": [
          -22.0703,
          64.3219
        ],
        "type": "Point"
      },
      "properties": {
        "avg_score": 58.8,
        "calls_ytd": 2,
        "name": "Akranes",
        "nox_reduced_ytd": 0,
        "ops_share_pct": 0,
        "score_distribution": [
          0,
          0,
          100,
          0
        ]
      },
      "type": "Feature"
    },
    {
      "geometry": {
        "coordinates": [
          -18.09049,
          65.6935
        ],
        "type": "Point"
      },
      "properties": {
        "avg_score": 40.5,
        "calls_ytd": 110,
        "name": "Akureyri",
        "nox_reduced_ytd": 12,
        "ops_share_pct": 0,
        "score_distribution": [
          32,
          43,
          15,
          10
        ]
      },
      "type": "Feature"
    },
    {
      "geometry": {
        "coordinates": [
          23.332,
          69.978
        ],
        "type": "Point"
      },
      "properties": {
        "avg_score": 60.2,
        "calls_ytd": 44,
        "name": "Alta",
        "nox_reduced_ytd": 16,
        "ops_share_pct": 0,
        "score_distribution": [
          9,
          9,
          52,
          30
        ]
      },
      "type": "Feature"
    },
    {
      "geometry": {
        "coordinates": [
          7.67,
          62.56
        ],
        "type": "Point"
      },
      "properties": {
        "avg_score": 52.3,
        "calls_ytd": 65,
        "name": "Andalsnes",
        "nox_reduced_ytd": 7,
        "ops_share_pct": 0,
        "score_distribution": [
          17,
          32,
          28,
          23
        ]
      },
      "type": "Feature"
    },
    {
      "geometry": {
        "coordinates": [
          -5.900996,
          54.617331
        ],
        "type": "Point"
      },
      "properties": {
        "avg_score": 46.1,
        "calls_ytd": 86,
        "name": "Belfast",
        "nox_reduced_ytd": 13,
        "ops_share_pct": 0,
        "score_distribution": [
          21,
          44,
          19,
          16
        ]
      },
      "type": "Feature"
    },
    {
      "geometry": {
        "coordinates": [
          5.32245,
          60.39205
        ],
        "type": "Point"
      },
      "properties": {
        "avg_score": 84.4,
        "calls_ytd": 466,
        "name": "Bergen",
        "nox_reduced_ytd": 31,
        "ops_share_pct": 69,
        "score_distribution": [
          1,
          6,
          14,
          79
        ]
      },
      "type": "Feature"
    },
    {
      "geometry": {
        "coordinates": [
          14.399,
          67.291
        ],
        "type": "Point"
      },
      "properties": {
        "avg_score": 36.3,
        "calls_ytd": 9,
        "name": "Bodo",
        "nox_reduced_ytd": 1,
        "ops_share_pct": 0,
        "score_distribution": [
          44,
          33,
          22,
          0
        ]
      },
      "type": "Feature"
    },
    {
      "geometry": {
        "coordinates": [
          7.066,
          60.468
        ],
        "type": "Point"
      },
      "properties": {
        "avg_score": 49.2,
        "calls_ytd": 65,
        "name": "Eidfjord",
        "nox_reduced_ytd": 9,
        "ops_share_pct": 0,
        "score_distribution": [
          28,
          14,
          46,
          12
        ]
      },
      "type": "Feature"
    },
    {
      "geometry": {
        "coordinates": [
          7.115,
          60.862
        ],
        "type": "Point"
      },
      "properties": {
        "avg_score": 72.4,
        "calls_ytd": 66,
        "name": "Flam",
        "nox_reduced_ytd": 27,
        "ops_share_pct": 0,
        "score_distribution": [
          2,
          9,
          39,
          50
        ]
      },
      "type": "Feature"
    },
    {
      "geometry": {
        "coordinates": [
          8.8367,
          63.7251
        ],
        "type": "Point"
      },
      "properties": {
        "avg_score": 72.9,
        "calls_ytd": 2,
        "name": "Froya",
        "nox_reduced_ytd": 0,
        "ops_share_pct": 0,
        "score_distribution": [
          0,
          0,
          50,
          50
        ]
      },
      "type": "Feature"
    },
    {
      "geometry": {
        "coordinates": [
          7.2,
          62.1
        ],
        "type": "Point"
      },
      "properties": {
        "avg_score": 68,
        "calls_ytd": 122,
        "name": "Geiranger",
        "nox_reduced_ytd": 34,
        "ops_share_pct": 0,
        "score_distribution": [
          2,
          18,
          39,
          40
        ]
      },
      "type": "Feature"
    },
    {
      "geometry": {
        "coordinates": [
          23.67866,
          70.66755
        ],
        "type": "Point"
      },
      "properties": {
        "avg_score": 60.6,
        "calls_ytd": 10,
        "name": "Hammerfest",
        "nox_reduced_ytd": 1,
        "ops_share_pct": 0,
        "score_distribution": [
          10,
          0,
          70,
          20
        ]
      },
      "type": "Feature"
    },
    {
      "geometry": {
        "coordinates": [
          16.533333,
          68.783333
        ],
        "type": "Point"
      },
      "properties": {
        "avg_score": 51.3,
        "calls_ytd": 10,
        "name": "Harstad",
        "nox_reduced_ytd": 1,
        "ops_share_pct": 0,
        "score_distribution": [
          30,
          20,
          10,
          40
        ]
      },
      "type": "Feature"
    },
    {
      "geometry": {
        "coordinates": [
          5.258,
          59.4105
        ],
        "type": "Point"
      },
      "properties": {
        "avg_score": 72.9,
        "calls_ytd": 91,
        "name": "Haugesund",
        "nox_reduced_ytd": 9,
        "ops_share_pct": 58,
        "score_distribution": [
          12,
          11,
          12,
          65
        ]
      },
      "type": "Feature"
    },
    {
      "geometry": {
        "coordinates": [
          6.87,
          62.088
        ],
        "type": "Point"
      },
      "properties": {
        "avg_score": 78.3,
        "calls_ytd": 10,
        "name": "Hellesylt",
        "nox_reduced_ytd": 6,
        "ops_share_pct": 0,
        "score_distribution": [
          0,
          10,
          10,
          80
        ]
      },
      "type": "Feature"
    },
    {
      "geometry": {
        "coordinates": [
          9.1112,
          63.5162
        ],
        "type": "Point"
      },
      "properties": {
        "avg_score": 18.7,
        "calls_ytd": 1,
        "name": "Hitra",
        "nox_reduced_ytd": 0,
        "ops_share_pct": 0,
        "score_distribution": [
          100,
          0,
          0,
          0
        ]
      },
      "type": "Feature"
    },
    {
      "geometry": {
        "coordinates": [
          25.96467,
          70.98416
        ],
        "type": "Point"
      },
      "properties": {
        "avg_score": 57.8,
        "calls_ytd": 95,
        "name": "Honningsvag",
        "nox_reduced_ytd": 16,
        "ops_share_pct": 0,
        "score_distribution": [
          13,
          26,
          31,
          31
        ]
      },
      "type": "Feature"
    },
    {
      "geometry": {
        "coordinates": [
          -23.126724,
          66.069344
        ],
        "type": "Point"
      },
      "properties": {
        "avg_score": 43.5,
        "calls_ytd": 112,
        "name": "Isafjordur",
        "nox_reduced_ytd": 11,
        "ops_share_pct": 1,
        "score_distribution": [
          26,
          40,
          21,
          13
        ]
      },
      "type": "Feature"
    },
    {
      "geometry": {
        "coordinates": [
          -2.974185,
          59.000427
        ],
        "type": "Point"
      },
      "properties": {
        "avg_score": 45.3,
        "calls_ytd": 92,
        "name": "Kirkwall",
        "nox_reduced_ytd": 10,
        "ops_share_pct": 0,
        "score_distribution": [
          22,
          45,
          23,
          11
        ]
      },
      "type": "Feature"
    },
    {
      "geometry": {
        "coordinates": [
          -6.593,
          62.233498
        ],
        "type": "Point"
      },
      "properties": {
        "avg_score": 18,
        "calls_ytd": 2,
        "name": "Klaksvik",
        "nox_reduced_ytd": 0,
        "ops_share_pct": 0,
        "score_distribution": [
          100,
          0,
          0,
          0
        ]
      },
      "type": "Feature"
    },
    {
      "geometry": {
        "coordinates": [
          8.0125,
          58.1455
        ],
        "type": "Point"
      },
      "properties": {
        "avg_score": 76.2,
        "calls_ytd": 96,
        "name": "Kristiansand",
        "nox_reduced_ytd": 16,
        "ops_share_pct": 53,
        "score_distribution": [
          9,
          5,
          17,
          69
        ]
      },
      "type": "Feature"
    },
    {
      "geometry": {
        "coordinates": [
          13.5755,
          68.1275
        ],
        "type": "Point"
      },
      "properties": {
        "avg_score": 44.9,
        "calls_ytd": 38,
        "name": "Leknes",
        "nox_reduced_ytd": 4,
        "ops_share_pct": 0,
        "score_distribution": [
          32,
          32,
          21,
          16
        ]
      },
      "type": "Feature"
    },
    {
      "geometry": {
        "coordinates": [
          -9.152428,
          38.703388
        ],
        "type": "Point"
      },
      "properties": {
        "avg_score": 43.2,
        "calls_ytd": 159,
        "name": "Lisbon",
        "nox_reduced_ytd": 31,
        "ops_share_pct": 0,
        "score_distribution": [
          30,
          36,
          24,
          11
        ]
      },
      "type": "Feature"
    },
    {
      "geometry": {
        "coordinates": [
          6.5,
          61.52
        ],
        "type": "Point"
      },
      "properties": {
        "avg_score": 40.1,
        "calls_ytd": 18,
        "name": "Loen",
        "nox_reduced_ytd": 1,
        "ops_share_pct": 0,
        "score_distribution": [
          44,
          11,
          44,
          0
        ]
      },
      "type": "Feature"
    },
    {
      "geometry": {
        "coordinates": [
          11.439,
          58.273
        ],
        "type": "Point"
      },
      "properties": {
        "avg_score": 38.5,
        "calls_ytd": 8,
        "name": "Lysekil",
        "nox_reduced_ytd": 1,
        "ops_share_pct": 0,
        "score_distribution": [
          38,
          38,
          12,
          12
        ]
      },
      "type": "Feature"
    },
    {
      "geometry": {
        "coordinates": [
          5.1418,
          61.9705
        ],
        "type": "Point"
      },
      "properties": {
        "avg_score": 46.9,
        "calls_ytd": 42,
        "name": "Maloy",
        "nox_reduced_ytd": 8,
        "ops_share_pct": 0,
        "score_distribution": [
          33,
          14,
          36,
          17
        ]
      },
      "type": "Feature"
    },
    {
      "geometry": {
        "coordinates": [
          5.6194,
          59.02252
        ],
        "type": "Point"
      },
      "properties": {
        "avg_score": 45.5,
        "calls_ytd": 1,
        "name": "Mekjarvik",
        "nox_reduced_ytd": 1,
        "ops_share_pct": 0,
        "score_distribution": [
          0,
          100,
          0,
          0
        ]
      },
      "type": "Feature"
    },
    {
      "geometry": {
        "coordinates": [
          7.15,
          62.73
        ],
        "type": "Point"
      },
      "properties": {
        "avg_score": 41.1,
        "calls_ytd": 44,
        "name": "Molde",
        "nox_reduced_ytd": 9,
        "ops_share_pct": 0,
        "score_distribution": [
          36,
          25,
          20,
          18
        ]
      },
      "type": "Feature"
    },
    {
      "geometry": {
        "coordinates": [
          11.4925,
          64.4639
        ],
        "type": "Point"
      },
      "properties": {
        "avg_score": null,
        "calls_ytd": 0,
        "name": "Namsos",
        "nox_reduced_ytd": 0,
        "ops_share_pct": 0,
        "score_distribution": [
          0,
          0,
          0,
          0
        ]
      },
      "type": "Feature"
    },
    {
      "geometry": {
        "coordinates": [
          5.987006,
          61.904741
        ],
        "type": "Point"
      },
      "properties": {
        "avg_score": 57.8,
        "calls_ytd": 45,
        "name": "Nordfjordeid",
        "nox_reduced_ytd": 16,
        "ops_share_pct": 0,
        "score_distribution": [
          4,
          20,
          53,
          22
        ]
      },
      "type": "Feature"
    },
    {
      "geometry": {
        "coordinates": [
          6.8,
          61.84
        ],
        "type": "Point"
      },
      "properties": {
        "avg_score": 51.3,
        "calls_ytd": 89,
        "name": "Olden",
        "nox_reduced_ytd": 12,
        "ops_share_pct": 0,
        "score_distribution": [
          28,
          27,
          17,
          28
        ]
      },
      "type": "Feature"
    },
    {
      "geometry": {
        "coordinates": [
          10.738,
          59.904
        ],
        "type": "Point"
      },
      "properties": {
        "avg_score": 59,
        "calls_ytd": 127,
        "name": "Oslo",
        "nox_reduced_ytd": 37,
        "ops_share_pct": 24,
        "score_distribution": [
          23,
          18,
          20,
          39
        ]
      },
      "type": "Feature"
    },
    {
      "geometry": {
        "coordinates": [
          -1.088367,
          50.811823
        ],
        "type": "Point"
      },
      "properties": {
        "avg_score": 49,
        "calls_ytd": 25,
        "name": "Portsmouth",
        "nox_reduced_ytd": 4,
        "ops_share_pct": 16,
        "score_distribution": [
          28,
          20,
          32,
          20
        ]
      },
      "type": "Feature"
    },
    {
      "geometry": {
        "coordinates": [
          -21.93649,
          64.14636
        ],
        "type": "Point"
      },
      "properties": {
        "avg_score": 44.9,
        "calls_ytd": 155,
        "name": "Reykjavik",
        "nox_reduced_ytd": 28,
        "ops_share_pct": 3,
        "score_distribution": [
          27,
          35,
          22,
          15
        ]
      },
      "type": "Feature"
    },
    {
      "geometry": {
        "coordinates": [
          6.2126,
          61.777
        ],
        "type": "Point"
      },
      "properties": {
        "avg_score": 68.9,
        "calls_ytd": 2,
        "name": "Sandane",
        "nox_reduced_ytd": 1,
        "ops_share_pct": 0,
        "score_distribution": [
          0,
          0,
          50,
          50
        ]
      },
      "type": "Feature"
    },
    {
      "geometry": {
        "coordinates": [
          5.74636,
          58.87014
        ],
        "type": "Point"
      },
      "properties": {
        "avg_score": 49.8,
        "calls_ytd": 23,
        "name": "Sandnes",
        "nox_reduced_ytd": 4,
        "ops_share_pct": 0,
        "score_distribution": [
          17,
          26,
          52,
          4
        ]
      },
      "type": "Feature"
    },
    {
      "geometry": {
        "coordinates": [
          -14.005289,
          65.260143
        ],
        "type": "Point"
      },
      "properties": {
        "avg_score": 38.9,
        "calls_ytd": 64,
        "name": "Seydisfjordur",
        "nox_reduced_ytd": 7,
        "ops_share_pct": 0,
        "score_distribution": [
          36,
          38,
          14,
          12
        ]
      },
      "type": "Feature"
    },
    {
      "geometry": {
        "coordinates": [
          7.592504,
          61.481703
        ],
        "type": "Point"
      },
      "properties": {
        "avg_score": 40.5,
        "calls_ytd": 31,
        "name": "Skjolden",
        "nox_reduced_ytd": 4,
        "ops_share_pct": 0,
        "score_distribution": [
          35,
          35,
          23,
          6
        ]
      },
      "type": "Feature"
    },
    {
      "geometry": {
        "coordinates": [
          -1.396667,
          50.896389
        ],
        "type": "Point"
      },
      "properties": {
        "avg_score": 44.3,
        "calls_ytd": 126,
        "name": "Southampton",
        "nox_reduced_ytd": 21,
        "ops_share_pct": 25,
        "score_distribution": [
          44,
          26,
          6,
          25
        ]
      },
      "type": "Feature"
    },
    {
      "geometry": {
        "coordinates": [
          5.7324,
          58.9828
        ],
        "type": "Point"
      },
      "properties": {
        "avg_score": 61.9,
        "calls_ytd": 161,
        "name": "Stavanger",
        "nox_reduced_ytd": 42,
        "ops_share_pct": 0,
        "score_distribution": [
          14,
          20,
          27,
          40
        ]
      },
      "type": "Feature"
    },
    {
      "geometry": {
        "coordinates": [
          -3.295666,
          58.964298
        ],
        "type": "Point"
      },
      "properties": {
        "avg_score": null,
        "calls_ytd": 0,
        "name": "Stromness",
        "nox_reduced_ytd": 0,
        "ops_share_pct": 0,
        "score_distribution": [
          0,
          0,
          0,
          0
        ]
      },
      "type": "Feature"
    },
    {
      "geometry": {
        "coordinates": [
          -6.77164,
          62.00973
        ],
        "type": "Point"
      },
      "properties": {
        "avg_score": 43.1,
        "calls_ytd": 37,
        "name": "Torshavn",
        "nox_reduced_ytd": 1,
        "ops_share_pct": 0,
        "score_distribution": [
          35,
          30,
          16,
          19
        ]
      },
      "type": "Feature"
    },
    {
      "geometry": {
        "coordinates": [
          18.58,
          69.4
        ],
        "type": "Point"
      },
      "properties": {
        "avg_score": 56.2,
        "calls_ytd": 150,
        "name": "Tromso",
        "nox_reduced_ytd": 31,
        "ops_share_pct": 0,
        "score_distribution": [
          14,
          19,
          41,
          27
        ]
      },
      "type": "Feature"
    },
    {
      "geometry": {
        "coordinates": [
          10.3875,
          63.438
        ],
        "type": "Point"
      },
      "properties": {
        "avg_score": 46.5,
        "calls_ytd": 50,
        "name": "Trondheim",
        "nox_reduced_ytd": 10,
        "ops_share_pct": 0,
        "score_distribution": [
          34,
          18,
          22,
          26
        ]
      },
      "type": "Feature"
    },
    {
      "geometry": {
        "coordinates": [
          6.58,
          61.0888
        ],
        "type": "Point"
      },
      "properties": {
        "avg_score": 29.4,
        "calls_ytd": 38,
        "name": "Vik",
        "nox_reduced_ytd": 2,
        "ops_share_pct": 0,
        "score_distribution": [
          66,
          21,
          13,
          0
        ]
      },
      "type": "Feature"
    }
  ]
}
